start=new Date('2021-11-18T00:00:00.000Z').valueOf();
sats=[{"NORAD_CAT_ID":"45096","TIME_SYSTEM":"UTC","DECAY_DATE":null,"FILE":"3217982","OBJECT_NAME":"STARLINK-1152","RA_OF_ASC_NODE":"107.6953","TLE_LINE2":"2 45096  53.0548 107.6953 0001576  86.4542 273.6628 15.06404245 99946","RCS_SIZE":"LARGE","BSTAR":"-0.00003322900000","APOAPSIS":"548.292","CLASSIFICATION_TYPE":"U","GP_ID":"189974183","INCLINATION":"53.0548","OBJECT_TYPE":"PAYLOAD","OBJECT_ID":"2020-006BE","REF_FRAME":"TEME","EPHEMERIS_TYPE":"0","PERIAPSIS":"546.109","MEAN_MOTION_DDOT":"0.0000000000000","LAUNCH_DATE":"2020-01-29","PERIOD":"95.592","SEMIMAJOR_AXIS":"6925.336","COUNTRY_CODE":"US","SITE":"AFETR","MEAN_ANOMALY":"273.6628","CENTER_NAME":"EARTH","REV_AT_EPOCH":"9994","MEAN_MOTION_DOT":"-0.00000777","EPOCH":"2021-11-17T18:43:21.847008","ELEMENT_SET_NO":"999","TLE_LINE1":"1 45096U 20006BE  21321.78011397 -.00000777  00000-0 -33229-4 0  9993","ECCENTRICITY":"0.00015760","MEAN_ELEMENT_THEORY":"SGP4","ARG_OF_PERICENTER":"86.4542","MEAN_MOTION":"15.06404245"},{"OBJECT_TYPE":"PAYLOAD","APOAPSIS":"548.194","BSTAR":"0.00005747000000","CLASSIFICATION_TYPE":"U","GP_ID":"189974932","INCLINATION":"53.0551","FILE":"3217982","OBJECT_NAME":"STARLINK-1184","RA_OF_ASC_NODE":"107.4761","RCS_SIZE":"LARGE","TLE_LINE2":"2 45098  53.0551 107.4761 0001401  83.8888 276.2261 15.06396610 99957","TIME_SYSTEM":"UTC","NORAD_CAT_ID":"45098","DECAY_DATE":null,"ECCENTRICITY":"0.00014010","TLE_LINE1":"1 45098U 20006BG  21321.82803379  .00000575  00000-0  57470-4 0  9997","ELEMENT_SET_NO":"999","MEAN_ELEMENT_THEORY":"SGP4","ARG_OF_PERICENTER":"83.8888","MEAN_MOTION":"15.06396610","CENTER_NAME":"EARTH","MEAN_ANOMALY":"276.2261","REV_AT_EPOCH":"9995","MEAN_MOTION_DOT":"0.00000575","EPOCH":"2021-11-17T19:52:22.119456","COUNTRY_CODE":"US","SITE":"AFETR","LAUNCH_DATE":"2020-01-29","PERIOD":"95.592","SEMIMAJOR_AXIS":"6925.359","OBJECT_ID":"2020-006BG","REF_FRAME":"TEME","EPHEMERIS_TYPE":"0","MEAN_MOTION_DDOT":"0.0000000000000","PERIAPSIS":"546.254"},{"OBJECT_ID":"2020-006BH","REF_FRAME":"TEME","EPHEMERIS_TYPE":"0","MEAN_MOTION_DDOT":"0.0000000000000","PERIAPSIS":"546.292","SITE":"AFETR","COUNTRY_CODE":"US","LAUNCH_DATE":"2020-01-29","SEMIMAJOR_AXIS":"6925.388","PERIOD":"95.593","CENTER_NAME":"EARTH","MEAN_ANOMALY":"281.9572","MEAN_MOTION_DOT":"0.00000903","REV_AT_EPOCH":"9995","EPOCH":"2021-11-17T19:04:36.595200","ECCENTRICITY":"0.00013880","ELEMENT_SET_NO":"999","TLE_LINE1":"1 45099U 20006BH  21321.79486800  .00000903  00000-0  79540-4 0  9997","MEAN_ELEMENT_THEORY":"SGP4","ARG_OF_PERICENTER":"78.1572","MEAN_MOTION":"15.06387108","TIME_SYSTEM":"UTC","NORAD_CAT_ID":"45099","DECAY_DATE":null,"FILE":"3217982","OBJECT_NAME":"STARLINK-1186","RA_OF_ASC_NODE":"107.6059","RCS_SIZE":"LARGE","TLE_LINE2":"2 45099  53.0559 107.6059 0001388  78.1572 281.9572 15.06387108 99959","APOAPSIS":"548.214","BSTAR":"0.00007954000000","CLASSIFICATION_TYPE":"U","GP_ID":"189975185","INCLINATION":"53.0559","OBJECT_TYPE":"PAYLOAD"},{"EPOCH":"2021-11-17T19:47:03.909120","MEAN_MOTION_DOT":"0.00000672","REV_AT_EPOCH":"9995","MEAN_ANOMALY":"272.8740","CENTER_NAME":"EARTH","MEAN_MOTION":"15.06395602","ARG_OF_PERICENTER":"87.2423","MEAN_ELEMENT_THEORY":"SGP4","ELEMENT_SET_NO":"999","TLE_LINE1":"1 45100U 20006BJ  21321.82435080  .00000672  00000-0  64035-4 0  9994","ECCENTRICITY":"0.00015170","PERIAPSIS":"546.176","MEAN_MOTION_DDOT":"0.0000000000000","EPHEMERIS_TYPE":"0","REF_FRAME":"TEME","OBJECT_ID":"2020-006BJ","SEMIMAJOR_AXIS":"6925.362","LAUNCH_DATE":"2020-01-29","PERIOD":"95.592","COUNTRY_CODE":"US","SITE":"AFETR","INCLINATION":"53.0533","GP_ID":"189974434","CLASSIFICATION_TYPE":"U","BSTAR":"0.00006403500000","APOAPSIS":"548.278","OBJECT_TYPE":"PAYLOAD","DECAY_DATE":null,"NORAD_CAT_ID":"45100","TIME_SYSTEM":"UTC","TLE_LINE2":"2 45100  53.0533 107.4759 0001517  87.2423 272.8740 15.06395602 99953","RCS_SIZE":"LARGE","RA_OF_ASC_NODE":"107.4759","OBJECT_NAME":"STARLINK-1193","FILE":"3217982"},{"MEAN_MOTION_DDOT":"0.0000000000000","PERIAPSIS":"546.438","EPHEMERIS_TYPE":"0","REF_FRAME":"TEME","OBJECT_ID":"2020-006BK","SITE":"AFETR","COUNTRY_CODE":"US","PERIOD":"95.592","LAUNCH_DATE":"2020-01-29","SEMIMAJOR_AXIS":"6925.335","EPOCH":"2021-11-17T19:41:44.356128","MEAN_MOTION_DOT":"-0.00000532","REV_AT_EPOCH":"9995","CENTER_NAME":"EARTH","MEAN_ANOMALY":"268.1608","MEAN_MOTION":"15.06404446","ARG_OF_PERICENTER":"91.9507","MEAN_ELEMENT_THEORY":"SGP4","ECCENTRICITY":"0.00011000","TLE_LINE1":"1 45101U 20006BK  21321.82065227 -.00000532  00000-0 -16817-4 0  9999","ELEMENT_SET_NO":"999","DECAY_DATE":null,"TIME_SYSTEM":"UTC","NORAD_CAT_ID":"45101","RCS_SIZE":"LARGE","TLE_LINE2":"2 45101  53.0540 107.4933 0001100  91.9507 268.1608 15.06404446 99957","RA_OF_ASC_NODE":"107.4933","OBJECT_NAME":"STARLINK-1194","FILE":"3217982","GP_ID":"189974684","INCLINATION":"53.0540","CLASSIFICATION_TYPE":"U","APOAPSIS":"547.962","BSTAR":"-0.00001681700000","OBJECT_TYPE":"PAYLOAD"},{"CENTER_NAME":"EARTH","MEAN_ANOMALY":"273.2433","MEAN_MOTION_DOT":"0.00000997","REV_AT_EPOCH":"9994","EPOCH":"2021-11-17T18:38:03.437952","ECCENTRICITY":"0.00015430","TLE_LINE1":"1 45102U 20006BL  21321.77642868  .00000997  00000-0  85835-4 0  9995","ELEMENT_SET_NO":"999","MEAN_ELEMENT_THEORY":"SGP4","ARG_OF_PERICENTER":"86.8733","MEAN_MOTION":"15.06407241","OBJECT_ID":"2020-006BL","REF_FRAME":"TEME","EPHEMERIS_TYPE":"0","MEAN_MOTION_DDOT":"0.0000000000000","PERIAPSIS":"546.123","SITE":"AFETR","COUNTRY_CODE":"US","SEMIMAJOR_AXIS":"6925.326","LAUNCH_DATE":"2020-01-29","PERIOD":"95.592","APOAPSIS":"548.260","BSTAR":"0.00008583500000","CLASSIFICATION_TYPE":"U","INCLINATION":"53.0552","GP_ID":"189975433","OBJECT_TYPE":"PAYLOAD","TIME_SYSTEM":"UTC","NORAD_CAT_ID":"45102","DECAY_DATE":null,"FILE":"3217982","OBJECT_NAME":"STARLINK-1195","RA_OF_ASC_NODE":"107.7103","RCS_SIZE":"LARGE","TLE_LINE2":"2 45102  53.0552 107.7103 0001543  86.8733 273.2433 15.06407241 99946"},{"EPOCH":"2021-11-17T19:15:47.975904","REV_AT_EPOCH":"9995","MEAN_MOTION_DOT":"0.00003467","MEAN_ANOMALY":"274.7132","CENTER_NAME":"EARTH","MEAN_MOTION":"15.06216459","ARG_OF_PERICENTER":"85.4018","MEAN_ELEMENT_THEORY":"SGP4","ELEMENT_SET_NO":"999","TLE_LINE1":"1 45103U 20006BM  21321.80263861  .00003467  00000-0  25276-3 0  9999","ECCENTRICITY":"0.00014090","PERIAPSIS":"546.800","MEAN_MOTION_DDOT":"0.0000000000000","EPHEMERIS_TYPE":"0","REF_FRAME":"TEME","OBJECT_ID":"2020-006BM","LAUNCH_DATE":"2020-01-29","PERIOD":"95.604","SEMIMAJOR_AXIS":"6925.911","COUNTRY_CODE":"US","SITE":"AFETR","INCLINATION":"53.0545","GP_ID":"189975686","CLASSIFICATION_TYPE":"U","BSTAR":"0.00025276000000","APOAPSIS":"548.752","OBJECT_TYPE":"PAYLOAD","DECAY_DATE":null,"NORAD_CAT_ID":"45103","TIME_SYSTEM":"UTC","TLE_LINE2":"2 45103  53.0545 107.5931 0001409  85.4018 274.7132 15.06216459 99950","RCS_SIZE":"LARGE","OBJECT_NAME":"STARLINK-1196","RA_OF_ASC_NODE":"107.5931","FILE":"3217982"},{"BSTAR":"0.00027321000000","APOAPSIS":"548.622","INCLINATION":"53.0534","GP_ID":"189952256","CLASSIFICATION_TYPE":"U","OBJECT_TYPE":"PAYLOAD","NORAD_CAT_ID":"45178","TIME_SYSTEM":"UTC","DECAY_DATE":null,"FILE":"3217864","TLE_LINE2":"2 45178  53.0534 267.3132 0002082  64.7192 295.4012 15.06410900 97120","RCS_SIZE":"LARGE","RA_OF_ASC_NODE":"267.3132","OBJECT_NAME":"STARLINK-1138","MEAN_ANOMALY":"295.4012","CENTER_NAME":"EARTH","EPOCH":"2021-11-17T20:40:07.611744","REV_AT_EPOCH":"9712","MEAN_MOTION_DOT":"0.00003791","MEAN_ELEMENT_THEORY":"SGP4","TLE_LINE1":"1 45178U 20012A   21321.86119921  .00003791  00000-0  27321-3 0  9994","ELEMENT_SET_NO":"999","ECCENTRICITY":"0.00020820","MEAN_MOTION":"15.06410900","ARG_OF_PERICENTER":"64.7192","REF_FRAME":"TEME","OBJECT_ID":"2020-012A","PERIAPSIS":"545.738","MEAN_MOTION_DDOT":"0.0000000000000","EPHEMERIS_TYPE":"0","LAUNCH_DATE":"2020-02-17","PERIOD":"95.591","SEMIMAJOR_AXIS":"6925.315","COUNTRY_CODE":"US","SITE":"AFETR"},{"TLE_LINE2":"2 45179  53.0536 267.3145 0001646  74.5412 285.5759 15.06402959 97129","RCS_SIZE":"LARGE","RA_OF_ASC_NODE":"267.3145","OBJECT_NAME":"STARLINK-1143","FILE":"3217864","DECAY_DATE":null,"NORAD_CAT_ID":"45179","TIME_SYSTEM":"UTC","OBJECT_TYPE":"PAYLOAD","GP_ID":"189952263","INCLINATION":"53.0536","CLASSIFICATION_TYPE":"U","BSTAR":"0.00006315500000","APOAPSIS":"548.344","PERIOD":"95.592","LAUNCH_DATE":"2020-02-17","SEMIMAJOR_AXIS":"6925.339","SITE":"AFETR","COUNTRY_CODE":"US","PERIAPSIS":"546.065","MEAN_MOTION_DDOT":"0.0000000000000","EPHEMERIS_TYPE":"0","REF_FRAME":"TEME","OBJECT_ID":"2020-012B","MEAN_MOTION":"15.06402959","ARG_OF_PERICENTER":"74.5412","MEAN_ELEMENT_THEORY":"SGP4","TLE_LINE1":"1 45179U 20012B   21321.86488802  .00000659  00000-0  63155-4 0  9998","ELEMENT_SET_NO":"999","ECCENTRICITY":"0.00016460","EPOCH":"2021-11-17T20:45:26.324928","REV_AT_EPOCH":"9712","MEAN_MOTION_DOT":"0.00000659","MEAN_ANOMALY":"285.5759","CENTER_NAME":"EARTH"},{"OBJECT_TYPE":"PAYLOAD","APOAPSIS":"548.212","BSTAR":"0.00013498000000","GP_ID":"189952322","INCLINATION":"53.0515","CLASSIFICATION_TYPE":"U","FILE":"3217874","RCS_SIZE":"LARGE","TLE_LINE2":"2 45180  53.0515 267.3614 0001443  74.5906 285.5242 15.06400439 97120","RA_OF_ASC_NODE":"267.3614","OBJECT_NAME":"STARLINK-1192","TIME_SYSTEM":"UTC","NORAD_CAT_ID":"45180","DECAY_DATE":null,"MEAN_ELEMENT_THEORY":"SGP4","ECCENTRICITY":"0.00014430","ELEMENT_SET_NO":"999","TLE_LINE1":"1 45180U 20012C   21321.85657049  .00001730  00000-0  13498-3 0  9995","MEAN_MOTION":"15.06400439","ARG_OF_PERICENTER":"74.5906","CENTER_NAME":"EARTH","MEAN_ANOMALY":"285.5242","EPOCH":"2021-11-17T20:33:27.690336","MEAN_MOTION_DOT":"0.00001730","REV_AT_EPOCH":"9712","SITE":"AFETR","COUNTRY_CODE":"US","SEMIMAJOR_AXIS":"6925.347","LAUNCH_DATE":"2020-02-17","PERIOD":"95.592","REF_FRAME":"TEME","OBJECT_ID":"2020-012C","MEAN_MOTION_DDOT":"0.0000000000000","PERIAPSIS":"546.213","EPHEMERIS_TYPE":"0"}];
